formatted_address,primary_address,other_address,development_id,development_name,other_address0,other_address1,other_address2,other_address3,other_address4,programs
4-6 Bloomfield St  Dorchester  MA  02124,y,,5,Bloomfield,,,,,,Leased Housing - PBV Family
4 Bloomfield St  Dorchester  MA  02124,y,,5,Bloomfield,,,,,,Leased Housing - PBV Family
6 Bloomfield St  Dorchester  MA  02124,y,,5,Bloomfield,,,,,,Leased Housing - PBV Family
"37, 39, 41 Bowdoin St  Boston  MA  02114",y,,6,Bowdoin Manor,,,,,,Leased Housing - PBV Eld/Dis
37 Bowdoin St  Boston  MA  02114,y,,6,Bowdoin Manor,,,,,,Leased Housing - PBV Eld/Dis
39 Bowdoin St  Boston  MA  02114,y,,6,Bowdoin Manor,,,,,,Leased Housing - PBV Eld/Dis
41 Bowdoin St  Boston  MA  02114,y,,6,Bowdoin Manor,,,,,,Leased Housing - PBV Eld/Dis
493-501 Washington St  Brighton  MA  02135,y,,7,Brighton-Allston Apartments,"1387 Commonwealth Ave, Allston, MA 02134",,,,,Leased Housing - PBV Family
493 Washington St  Brighton  MA  02135,y,,7,Brighton-Allston Apartments,,,,,,Leased Housing - PBV Family
495 Washington St  Brighton  MA  02135,y,,7,Brighton-Allston Apartments,,,,,,Leased Housing - PBV Family
497 Washington St  Brighton  MA  02135,y,,7,Brighton-Allston Apartments,,,,,,Leased Housing - PBV Family
499 Washington St  Brighton  MA  02135,y,,7,Brighton-Allston Apartments,,,,,,Leased Housing - PBV Family
501 Washington St  Brighton  MA  02135,y,,7,Brighton-Allston Apartments,,,,,,Leased Housing - PBV Family
1387 Commonwealth Ave  Allston  MA  02134,,y,7,Brighton-Allston Apartments,,,,,,Leased Housing - PBV Family
104 First Ave  Charlestown  MA  02129,,,8,Building 104,,,,,,Leased Housing - PBV Eld/Dis
209-219-221-223 Heath St  Jamaica Plain  MA  02130,y,,9,Catherine Gallagher,,,,,,Leased Housing - PBV Family
209 Heath St  Jamaica Plain  MA  02130,y,,9,Catherine Gallagher,,,,,,Leased Housing - PBV Family
219 Heath St  Jamaica Plain  MA  02130,y,,9,Catherine Gallagher,,,,,,Leased Housing - PBV Family
221 Heath St  Jamaica Plain  MA  02130,y,,9,Catherine Gallagher,,,,,,Leased Housing - PBV Family
223 Heath St  Jamaica Plain  MA  02130,y,,9,Catherine Gallagher,,,,,,Leased Housing - PBV Family
2311-2313 Washington St  Boston  MA  02119,y,,10,Central Boston Elder Services,,,,,,Leased Housing - PBV Eld/Dis
2311 Washington St  Boston  MA  02119,y,,10,Central Boston Elder Services,,,,,,Leased Housing - PBV Eld/Dis
2313 Washington St  Boston  MA  02119,y,,10,Central Boston Elder Services,,,,,,Leased Housing - PBV Eld/Dis
200 Corey St  Brighton  MA  02135,y,,11,Corey Seton Manor,,,,,,Leased Housing - PBV Eld/Dis
"7,11,11A,15 Cortes St  Boston  MA  02115",y,,12,Cortes Apartments,,,,,,Leased Housing - PBV Family
7 Cortes St  Boston  MA  02115,y,,12,Cortes Apartments,,,,,,Leased Housing - PBV Family
11 Cortes St  Boston  MA  02115,y,,12,Cortes Apartments,,,,,,Leased Housing - PBV Family
11A Cortes St  Boston  MA  02115,y,,12,Cortes Apartments,,,,,,Leased Housing - PBV Family
15 Cortes St  Boston  MA  02115,y,,12,Cortes Apartments,,,,,,Leased Housing - PBV Family
140-146 Dudley St  Roxbury  MA  02118,y,,13,Dartmouth Hotel,,,,,,Leased Housing - PBV Family
140 Dudley St  Roxbury  MA  02118,y,,13,Dartmouth Hotel,,,,,,Leased Housing - PBV Family
142 Dudley St  Roxbury  MA  02118,y,,13,Dartmouth Hotel,,,,,,Leased Housing - PBV Family
144 Dudley St  Roxbury  MA  02118,y,,13,Dartmouth Hotel,,,,,,Leased Housing - PBV Family
146 Dudley St  Roxbury  MA  02118,y,,13,Dartmouth Hotel,,,,,,Leased Housing - PBV Family
Scattered Sites  Boston  MA  02116,,,14,Dixwell Park,,,,,,Leased Housing - PBV Family
223-229 Dudley St  Roxbury  MA  02119,y,,15,Dudley Greenville,,,,,,Leased Housing - PBV Family
223 Dudley St  Roxbury  MA  02119,y,,15,Dudley Greenville,,,,,,Leased Housing - PBV Family
225 Dudley St  Roxbury  MA  02119,y,,15,Dudley Greenville,,,,,,Leased Housing - PBV Family
227 Dudley St  Roxbury  MA  02119,y,,15,Dudley Greenville,,,,,,Leased Housing - PBV Family
229 Dudley St  Roxbury  MA  02119,y,,15,Dudley Greenville,,,,,,Leased Housing - PBV Family
8 Dunmore St  Boston  MA  02116,y,,16,Dunmore Place,,,,,,Leased Housing - PBV Family
3037 Washington St  Boston  MA  02119,y,,17,Egleston Crossing,,,,,,Leased Housing - PBV Family
1 Shandon Rd  Dorchester  MA  02124,y,,18,Franklin Hill,,,,,,Public Housing - Tax Cred
82 Green St  Jamaica Plain  MA  02130,y,,19,Green Street,,,,,,Leased Housing - PBV Eld/Dis
Harvard Ave  Senator Bolling Circle  Snowden Way  Dorchester  MA  02124,y,,20,Harvard Commons,,,,,,Leased Housing - PBV Family
27 Burroughs St  Jamaica Plain  MA  02130,y,,21,Hearth at Burroughs,,,,,,Leased Housing - PBV Eld/Dis
2 Kingbird Rd  Dorchester  MA  02124,y,,22,Hearth at Olmsted Green,,,,,,Leased Housing - PBV Eld/Dis
209 Summer St  East Boston  MA  02128,y,,23,Heritage Apartments (Elderly),,,,,,Leased Housing - PBV Eld/Dis
209 Summer St  East Boston  MA  02128,y,,24,Heritage Apartments (Family),,,,,,Leased Housing - PBV Family
516 Warren St  Dorchester  MA  02121,y,,25,Imani House,,,,,,Leased Housing - PBV Eld/Dis
Scattered Sites  Jamaica Plain  MA  02130,,,27,JP Scattered Sites,,,,,,Leased Housing - PBV Family
2262 Dorchester Ave  Dorchester  MA  02124,y,,28,Lower Mills,,,,,,Public Housing - Federal Eld/Dis
Scattered Sites  Roxbury  MA  02119,,,29,Lower Roxbury Apartments,,,,,,Leased Housing - PBV Family
229A River St  Mattapan  MA  02126,y,,30,Mattapan Heights,,,,,,Leased Housing - PBV Family
95 Moreland St  Roxbury  MA  02116,y,,31,Moreland Affordable,,,,,,Leased Housing - PBV Family
100 Norway St  Boston  MA  02115,y,,32,Morville House,,,,,,Leased Housing - PBV Eld/Dis
302 Eustis St  Roxbury  MA  02119,y,,33,Nueva Esperanza,,,,,,Leased Housing - PBV Family
25 James O'Neil St  Boston  MA  02127,y,,34,Old Colony Phase 1,,,,,,Leased Housing - PBV Family
166 Terrace St  Roxbury  MA  02120,y,,35,Oliver Lofts,,,,,,Leased Housing - PBV Family
136-138 Pleasant St  Dorchester  MA  02125,y,,36,Pleasant Street,,,,,,Leased Housing - PBV Family
136 Pleasant St  Dorchester  MA  02125,y,,36,Pleasant Street,,,,,,Leased Housing - PBV Family
138 Pleasant St  Dorchester  MA  02125,y,,36,Pleasant Street,,,,,,Leased Housing - PBV Family
278-292 Blue Hill Ave  Roxbury  MA  02119,y,,37,Quincy Commons,,,,,,Leased Housing - PBV Family
278 Blue Hill Ave  Roxbury  MA  02119,y,,37,Quincy Commons,,,,,,Leased Housing - PBV Family
280 Blue Hill Ave  Roxbury  MA  02119,y,,37,Quincy Commons,,,,,,Leased Housing - PBV Family
282 Blue Hill Ave  Roxbury  MA  02119,y,,37,Quincy Commons,,,,,,Leased Housing - PBV Family
284 Blue Hill Ave  Roxbury  MA  02119,y,,37,Quincy Commons,,,,,,Leased Housing - PBV Family
286 Blue Hill Ave  Roxbury  MA  02119,y,,37,Quincy Commons,,,,,,Leased Housing - PBV Family
288 Blue Hill Ave  Roxbury  MA  02119,y,,37,Quincy Commons,,,,,,Leased Housing - PBV Family
290 Blue Hill Ave  Roxbury  MA  02119,y,,37,Quincy Commons,,,,,,Leased Housing - PBV Family
292 Blue Hill Ave  Roxbury  MA  02119,y,,37,Quincy Commons,,,,,,Leased Housing - PBV Family
Scattered Sites Rockvale Circle  Jamaica Plain  MA  02130,,,38,Rockvale Circle,,,,,,Leased Housing - PBV Family
Scattered Sites  Boston  MA  ,,,39,Rollins Square,,,,,,Leased Housing - PBV Family
1 Fenwood Rd  Boston  MA  02115,y,,40,Roxbury Tenant of Harvard,,,,,,Leased Housing - PBV Family
20 Rutland Sq  South End  MA  02118,y,,41,Rutland Square House (Family),,,,,,Leased Housing - PBV Family
40 Berkeley St  Boston  MA  02116,y,,42,The Berkeley Residence,,,,,,Leased Housing - PBV Family
249 River St  Mattapan  MA  02126,y,,43,The Foley,,,,,,Leased Housing - PBV Eld/Dis
170-172 Maverick St  East Boston  MA  02128,y,,44,The Greenway/Maverick,,,,,,Leased Housing - PBV Family
170 Maverick St  East Boston  MA  02128,y,,44,The Greenway/Maverick,,,,,,Leased Housing - PBV Family
172 Maverick St  East Boston  MA  02128,y,,44,The Greenway/Maverick,,,,,,Leased Housing - PBV Family
1 Nassau St  Boston  MA  02111,y,,45,The Metropolitan,,,,,,Leased Housing - PBV Family
406 Meridian St  East Boston  MA  02128,y,,46,Trinity House,,,,,,Leased Housing - PBV Family
612-618 Columbia St  Dorchester  MA  02125,y,,47,Uphams Corner,,,,,,Leased Housing - PBV Eld/Dis
612 Columbia St  Dorchester  MA  02125,y,,47,Uphams Corner,,,,,,Leased Housing - PBV Eld/Dis
614 Columbia St  Dorchester  MA  02125,y,,47,Uphams Corner,,,,,,Leased Housing - PBV Eld/Dis
616 Columbia St  Dorchester  MA  02125,y,,47,Uphams Corner,,,,,,Leased Housing - PBV Eld/Dis
618 Columbia St  Dorchester  MA  02125,y,,47,Uphams Corner,,,,,,Leased Housing - PBV Eld/Dis
Scattered Sites  Dorchester  MA  ,,,48,Uphams West,,,,,,Leased Housing - PBV Family
237-241 Walnut Ave  Roxbury  MA  02119,y,,49,Walnut House,,,,,,Leased Housing - Mod Rehab Eld/Dis
237 Walnut Ave  Roxbury  MA  02119,y,,49,Walnut House,,,,,,Leased Housing - Mod Rehab Eld/Dis
239 Walnut Ave  Roxbury  MA  02119,y,,49,Walnut House,,,,,,Leased Housing - Mod Rehab Eld/Dis
241 Walnut Ave  Roxbury  MA  02119,y,,49,Walnut House,,,,,,Leased Housing - Mod Rehab Eld/Dis
4560 Washington St  Roslindale  MA  02131,y,,50,Washington Beech,,,,,,Public Housing - Tax Cred
91-95 Washington St  Brighton  MA  02135,y,,51,Washington Street,,,,,,Public Housing - Federal Eld/Dis
91Washington St  Brighton  MA  02135,y,,51,Washington Street,,,,,,Public Housing - Federal Eld/Dis
93 Washington St  Brighton  MA  02135,y,,51,Washington Street,,,,,,Public Housing - Federal Eld/Dis
95 Washington St  Brighton  MA  02135,y,,51,Washington Street,,,,,,Public Housing - Federal Eld/Dis
12-14 Wise St  Jamaica Plain  MA  02130,y,,52,Wise Street/Porter Apartments,,,,,,Leased Housing - PBV Family
12 Wise St  Jamaica Plain  MA  02130,y,,52,Wise Street/Porter Apartments,,,,,,Leased Housing - PBV Family
14 Wise St  Jamaica Plain  MA  02130,y,,52,Wise Street/Porter Apartments,,,,,,Leased Housing - PBV Family
131 Zeigler St  Boston  MA  02118,y,,53,Zeigler,,,,,,Leased Housing - PBV Eld/Dis
109 Mt. Pleasant Ave  Roxbury  MA  02119,y,,54,109 Mt. Pleasant Ave,,,,,,Leased Housing - PBV Family
225 Centre St  Jamaica Plain  MA  02130,y,,55,225 Centre Street,,,,,,Leased Housing - PBV Family
698 Massachusetts Ave  Boston  MA  02118 ,y,,57,698 Mass Ave,,,,,,Leased Housing - PBV Family
1049-1051 Tremont St  Boston  MA  02120,y,,58,Arch Project,,,,,,Leased Housing - Mod Rehab Family
1049 Tremont St  Boston  MA  02120,y,,58,Arch Project,,,,,,Leased Housing - Mod Rehab Family
1051 Tremont St  Boston  MA  02120,y,,58,Arch Project,,,,,,Leased Housing - Mod Rehab Family
326 Shawnut Ave  Boston  MA  02118,y,,59,Betances House,,,,,,Leased Housing - Mod Rehab Eld/Dis
4 Bishop St  Jamaica Plain  MA  02130,y,,60,Bishop Street,,,,,,Leased Housing - Mod Rehab Eld/Dis
698 Massachusetts Ave  Boston  MA  02118,y,,61,Bobbie White House,,,,,,Leased Housing - Mod Rehab Family
1989-1991  1899  1901  2014-2018  2020-2030 Columbus Ave  Roxbury  MA  02119,y,,62,Columbus Ave Apartments,,,,,,Leased Housing - Mod Rehab Family
1989 Columbus Ave  Roxbury  MA  02119,y,,62,Columbus Ave Apartments,,,,,,Leased Housing - Mod Rehab Family
1991 Columbus Ave  Roxbury  MA  02119,y,,62,Columbus Ave Apartments,,,,,,Leased Housing - Mod Rehab Family
1899 Columbus Ave  Roxbury  MA  02119,y,,62,Columbus Ave Apartments,,,,,,Leased Housing - Mod Rehab Family
1901 Columbus Ave  Roxbury  MA  02119,y,,62,Columbus Ave Apartments,,,,,,Leased Housing - Mod Rehab Family
2014 Columbus Ave  Roxbury  MA  02119,y,,62,Columbus Ave Apartments,,,,,,Leased Housing - Mod Rehab Family
2016 Columbus Ave  Roxbury  MA  02119,y,,62,Columbus Ave Apartments,,,,,,Leased Housing - Mod Rehab Family
2018 Columbus Ave  Roxbury  MA  02119,y,,62,Columbus Ave Apartments,,,,,,Leased Housing - Mod Rehab Family
2020 Columbus Ave  Roxbury  MA  02119,y,,62,Columbus Ave Apartments,,,,,,Leased Housing - Mod Rehab Family
2022 Columbus Ave  Roxbury  MA  02119,y,,62,Columbus Ave Apartments,,,,,,Leased Housing - Mod Rehab Family
2024 Columbus Ave  Roxbury  MA  02119,y,,62,Columbus Ave Apartments,,,,,,Leased Housing - Mod Rehab Family
2026 Columbus Ave  Roxbury  MA  02119,y,,62,Columbus Ave Apartments,,,,,,Leased Housing - Mod Rehab Family
2028 Columbus Ave  Roxbury  MA  02119,y,,62,Columbus Ave Apartments,,,,,,Leased Housing - Mod Rehab Family
2030 Columbus Ave  Roxbury  MA  02119,y,,62,Columbus Ave Apartments,,,,,,Leased Housing - Mod Rehab Family
17 Court St  Boston  MA  02108,y,,63,Congressman John Joseph Moakley Quarters,,,,,,Leased Housing - Mod Rehab Family
1035-1039 Tremont St  Boston  MA  02120,y,,64,Conventry Street Program,,,,,,Leased Housing - Mod Rehab Eld/Dis
1035 Tremont St  Boston  MA  02120,y,,64,Conventry Street Program,,,,,,Leased Housing - Mod Rehab Eld/Dis
1037 Tremont St  Boston  MA  02120,y,,64,Conventry Street Program,,,,,,Leased Housing - Mod Rehab Eld/Dis
1039 Tremont St  Boston  MA  02120,y,,64,Conventry Street Program,,,,,,Leased Housing - Mod Rehab Eld/Dis
123 Crawford St  Dorchester  MA  02121,y,,65,Crawford Street,,,,,,Leased Housing - Mod Rehab Family
318 Dudley St  Roxbury  MA  02119,y,,66,Daly House,,,,,,Leased Housing - Mod Rehab Eld/Dis
"7-9, 11-13 Dixwell St  Roxbury  MA  02119",y,,67,Dixwell Street Apartments,,,,,,Leased Housing - Mod Rehab Family
7 Dixwell St  Roxbury  MA  02119,y,,67,Dixwell Street Apartments,,,,,,Leased Housing - Mod Rehab Family
9 Dixwell St  Roxbury  MA  02119,y,,67,Dixwell Street Apartments,,,,,,Leased Housing - Mod Rehab Family
11 Dixwell St  Roxbury  MA  02119,y,,67,Dixwell Street Apartments,,,,,,Leased Housing - Mod Rehab Family
13 Dixwell St  Roxbury  MA  02119,y,,67,Dixwell Street Apartments,,,,,,Leased Housing - Mod Rehab Family
40 East Springfield St  Boston  MA  02118,y,,68,East Springfield,,,,,,Leased Housing - Mod Rehab Eld/Dis
3-5 Esmond St  Dorchester  MA  02121,y,,69,Esmond Street,,,,,,Leased Housing - Mod Rehab Family
3 Esmond St  Dorchester  MA  02121,y,,69,Esmond Street,,,,,,Leased Housing - Mod Rehab Family
5 Esmond St  Dorchester  MA  02121,y,,69,Esmond Street,,,,,,Leased Housing - Mod Rehab Family
31-31A Fessenden St  Mattapan  MA  02126,y,,70,Fessenden Street Apartments (Elderly),,,,,,Leased Housing - Mod Rehab Eld/Dis
31 Fessenden St  Mattapan  MA  02126,y,,70,Fessenden Street Apartments (Elderly),,,,,,Leased Housing - Mod Rehab Eld/Dis
31A Fessenden St  Mattapan  MA  02126,y,,70,Fessenden Street Apartments (Elderly),,,,,,Leased Housing - Mod Rehab Eld/Dis
133-135 Fuller St  Dorchester  MA  02124,y,,71,Fuller House,,,,,,Leased Housing - Mod Rehab Eld/Dis
133 Fuller St  Dorchester  MA  02124,y,,71,Fuller House,,,,,,Leased Housing - Mod Rehab Eld/Dis
135 Fuller St  Dorchester  MA  02124,y,,71,Fuller House,,,,,,Leased Housing - Mod Rehab Eld/Dis
497-503 Columbus Ave  Boston  MA  02118,y,,72,Haley House,,,,,,Leased Housing - Mod Rehab Family
497 Columbus Ave  Boston  MA  02118,y,,72,Haley House,,,,,,Leased Housing - Mod Rehab Family
499 Columbus Ave  Boston  MA  02118,y,,72,Haley House,,,,,,Leased Housing - Mod Rehab Family
501 Columbus Ave  Boston  MA  02118,y,,72,Haley House,,,,,,Leased Housing - Mod Rehab Family
503 Columbus Ave  Boston  MA  02118,y,,72,Haley House,,,,,,Leased Housing - Mod Rehab Family
270 Huntington Ave  Boston  MA  02115,y,,73,Huntington at Symphony,,,,,,Leased Housing - Mod Rehab Eld/Dis
270 Huntington Ave  Boston  MA  02115,y,,74,Huntington House,,,,,,Leased Housing - Tenant Voucher
74A-B-76 Interval St  Dorchester  MA  02121,y,,75,Infill 1,,,,,,Leased Housing - Mod Rehab Family
74A Interval St  Dorchester  MA  02121,y,,75,Infill 1,,,,,,Leased Housing - Mod Rehab Family
74B Interval St  Dorchester  MA  02121,y,,75,Infill 1,,,,,,Leased Housing - Mod Rehab Family
76 Interval St  Dorchester  MA  02121,y,,75,Infill 1,,,,,,Leased Housing - Mod Rehab Family
99-101 A & 101 B Brunswick St  Boston  MA  02121,y,,76,Infill 2,,,,,,Leased Housing - Mod Rehab Family
99 Brunswick St  Boston  MA  02121,y,,76,Infill 2,,,,,,Leased Housing - Mod Rehab Family
101A Brunswick St  Boston  MA  02121,y,,76,Infill 2,,,,,,Leased Housing - Mod Rehab Family
101B Brunswick St  Boston  MA  02121,y,,76,Infill 2,,,,,,Leased Housing - Mod Rehab Family
2  4 Jess St  Jamaica Plain  MA  02130,y,,77,Jess Street,,,,,,Leased Housing - Mod Rehab Family
2 Jess St  Jamaica Plain  MA  02130,y,,77,Jess Street,,,,,,Leased Housing - Mod Rehab Family
4 Jess St  Jamaica Plain  MA  02130,y,,77,Jess Street,,,,,,Leased Housing - Mod Rehab Family
45 Lyon St  Dorchester  MA  02124,y,,78,Lyon House,,,,,,Leased Housing - Mod Rehab Eld/Dis
258 Main St  Charlestown  MA  02129,y,,79,Main Street,,,,,,Leased Housing - Mod Rehab Eld/Dis
62 Montebello St  Jamaica Plain  MA  02130,y,,80,Montebello,,,,,,Leased Housing - Mod Rehab Family
95 Moreland St  Boston  MA  02119,y,,81,Moreland Street,,,,,,None
290 Eustis St  Roxbury  MA  02119,y,,82,Nueva Vida,,,,,,Leased Housing - Mod Rehab Eld/Dis
526 Park St  Dorchester  MA  02124,y,,83,526 Park Street,,,,,,Leased Housing - Mod Rehab Eld/Dis
124  126 Park St  Dorchester  MA  02124,y,,84,124 & 126 Park Street,,,,,,Leased Housing - Mod Rehab Eld/Dis
124 Park St  Dorchester  MA  02124,y,,84,124 & 126 Park Street,,,,,,Leased Housing - Mod Rehab Eld/Dis
126 Park St  Dorchester  MA  02124,y,,84,124 & 126 Park Street,,,,,,Leased Housing - Mod Rehab Eld/Dis
28 Rockwell St  Dorchester  MA  02124,y,,85,Rockwell House,,,,,,Leased Housing - Mod Rehab Eld/Dis
4 Oakman St  Dorchester  MA  02122,y,,86,Souris House,,,,,,Leased Housing - Mod Rehab Eld/Dis
35 Tuttle St  Dorchester  MA  02125,y,,87,Tuttle House,,,,,,Leased Housing - Mod Rehab Eld/Dis
9 Valentine St  Roxbury  MA  02119,y,,88,Valentine Street,,,,,,Leased Housing - Mod Rehab Eld/Dis
250-254 Warren St  Roxbury  MA  02119,y,,89,Victory Housing,,,,,,Leased Housing - Mod Rehab Eld/Dis
250 Warren St  Roxbury  MA  02119,y,,89,Victory Housing,,,,,,Leased Housing - Mod Rehab Eld/Dis
252 Warren St  Roxbury  MA  02119,y,,89,Victory Housing,,,,,,Leased Housing - Mod Rehab Eld/Dis
254 Warren St  Roxbury  MA  02119,y,,89,Victory Housing,,,,,,Leased Housing - Mod Rehab Eld/Dis
1023 Hyde Park Ave  Hyde Park  MA  02136,y,,90,Westminster House,,,,,,Leased Housing - Mod Rehab Eld/Dis
260 Ruggles St  Roxbury  MA  02120,y,,91,Alice Taylor,,,,,,Public Housing - Federal Family
125 Amory St  Jamaica Plain  MA  02130,y,,92,Amory Street,,,,,,Public Housing - Federal Eld/Dis
52 Summer St  Dorchester  MA  02122,y,,93,Annapolis,,,,,,Public Housing - Federal Eld/Dis
120 Brookway Rd  Roslindale  MA  02131,y,,94,Archdale,,,,,,Public Housing - State Family
374 Ashmont St  Dorchester  MA  02124,y,,95,Ashmont,,,,,,Public Housing - Federal Eld/Dis
185 Fulton St  Boston  MA  02109,y,,96,Ausonia,,,,,,Public Housing - Federal Eld/Dis
160 Thirteenth St  Charlestown  MA  02129,y,,97,"Basilica, Condos",,,,,,Public Housing - State Eld/Dis
24 Bellflower St  Dorchester  MA  02125,y,,98,Bellflower,,,,,,Public Housing - Federal Eld/Dis
30 Bickford St  Jamaica Plain  MA  02130,y,,99,Bromley Park,,,,,,Public Housing - Federal Family
30 Bickford St  Jamaica Plain  MA  02130,y,,100,Bromley Park  - Elderly,,,,,,Public Housing - Federal Eld/Dis
136 Lenox St  Boston  MA  02118,y,,101,Camden,,,,,,Public Housing - State Family
1472 Washington St  Boston  MA  02118,y,,102,Cathedral,,,,,,Public Housing - Federal Family
55 Bunker Hill St  Charlestown  MA  02129,y,,103,Charlestown,,,,,,Public Housing - Federal Family
784 Washington St  Dorchester  MA  02124,y,,104,Codman,,,,,,Public Housing - Federal Eld/Dis
35 Fidelis Way  Brighton  MA  02135,y,,105,Commonwealth,,,,,,Public Housing - Federal Family
35 Fidelis Way  Brighton  MA  02135,y,,106,Commonwealth Elderly,,,,,,Public Housing - Federal Eld/Dis
101 Davison St  Hyde Park  MA  02136,y,,107,Davison,,,,,,Public Housing - Federal Eld/Dis
199 H St South  Boston  MA  02127,y,,111,Foley,,,,,,Public Housing - Federal Eld/Dis
91 Ames St  Dorchester  MA  02124,y,,112,Franklin Field Family,,,,,,Public Housing - Federal Family
91 Ames St  Dorchester  MA  02124,y,,113,Franklin Field Elderly,,,,,,Public Housing - State Eld/Dis
91 Ames St  Dorchester  MA  02124,y,,114,Franklin Field Family - State,,,,,,Public Housing - State Family
755 Tremont St  Roxbury  MA  02118,y,,115,Frederick Douglass,,,,,,Public Housing - Federal Eld/Dis
115 Standard St  Mattapan  MA  02126,y,,116,Gallivan Boulevard,,,,,,Public Housing - State Family
114 Rutherford Ave  Charlestown  MA  02129,y,,117,General Warren,,,,,,Public Housing - Federal Eld/Dis
15 Mary Moore Beatty Cir  Mattapan  MA  02126,y,,118,Groveland,,,,,,Public Housing - Federal Eld/Dis
155 Hampton House  Roxbury  MA  02118,y,,119,Hampton House,,,,,,Public Housing - Federal Eld/Dis
705 River St  Mattapan  MA  02126,y,,120,Hassan,,,,,,Public Housing - Federal Eld/Dis
30 Bickford St  Jamaica Plain  MA  02130,y,,121,Heath Street,,,,,,Public Housing - Federal Family
50-68 Highland Ave  Roxbury  MA  02119,y,,122,Highland Park,,,,,,Public Housing - Federal Family
50 Highland Ave  Roxbury  MA  02119,y,,122,Highland Park,,,,,,Public Housing - Federal Family
52 Highland Ave  Roxbury  MA  02119,y,,122,Highland Park,,,,,,Public Housing - Federal Family
54 Highland Ave  Roxbury  MA  02119,y,,122,Highland Park,,,,,,Public Housing - Federal Family
56 Highland Ave  Roxbury  MA  02119,y,,122,Highland Park,,,,,,Public Housing - Federal Family
58 Highland Ave  Roxbury  MA  02119,y,,122,Highland Park,,,,,,Public Housing - Federal Family
60 Highland Ave  Roxbury  MA  02119,y,,122,Highland Park,,,,,,Public Housing - Federal Family
62 Highland Ave  Roxbury  MA  02119,y,,122,Highland Park,,,,,,Public Housing - Federal Family
64 Highland Ave  Roxbury  MA  02119,y,,122,Highland Park,,,,,,Public Housing - Federal Family
66 Highland Ave  Roxbury  MA  02119,y,,122,Highland Park,,,,,,Public Housing - Federal Family
68 Highland Ave  Roxbury  MA  02119,y,,122,Highland Park,,,,,,Public Housing - Federal Family
129 Elm Hill Ave  Roxbury  MA  02119,y,,123,Holgate,,,,,,Public Housing - Federal Eld/Dis
130 Chestnut Hill Ave  Brighton  MA  02135,y,,124,JJ Carroll,,,,,,Public Housing - Federal Eld/Dis
5 Melville Ave  Dorchester  MA  02124,y,,125,JJ Meade,,,,,,Public Housing - Federal Eld/Dis
136 Lenox St  Boston  MA  02118,y,,126,Lenox,,,,,,Public Housing - Federal Family
11 Gordon Ave  Hyde Park  MA  02136,y,,127,Malone,,,,,,Public Housing - Federal Eld/Dis
10 Kemp St  South Boston  MA  02127,y,,128,Mary Ellen McCormack,,,,,,Public Housing - Federal Family
280 MLK Jr. Blvd  Roxbury  MA  02119,y,,129,MLK,,,,,,Public Housing - Federal Eld/Dis
120 L St  South Boston  MA  02127,y,,130,Msgr Powers,,,,,,Public Housing - State Eld/Dis
265 East 9th St  South Boston  MA  02127,y,,131,Old Colony,,,,,,Public Housing - Federal Family
38 Vallar Rd  East Boston  MA  02128,y,,132,Orient Heights,,,,,,Public Housing - State Family
330 Bowdoin St  Dorchester  MA  02122,y,,133,Pasciucco,,,,,,Public Housing - Federal Eld/Dis
20 Washington St  Brighton  MA  02135,y,,134,Patricia White,,,,,,Public Housing - Federal Eld/Dis
1875 Dorchester Ave  Dorchester  MA  02122,y,,135,Peabody/Englewood,,,,,,Public Housing - Federal Eld/Dis
5300 Washington St  West Roxbury  MA  02132,y,,136,Rockland,,,,,,Public Housing - Federal Eld/Dis
1 Cliffmont St  Roslindale  MA  02131,y,,137,Roslyn,,,,,,Public Housing - Federal Eld/Dis
94 West Newton St  Boston  MA  02118,y,,138,Rutland/East Springfield,,,,,,Public Housing - Federal Family
15 St. Rose St #644  Jamaica Plain  MA  02130,y,,139,South Street,,,,,,Public Housing - State Family
23 Spring St  West Roxbury  MA  02132,y,,140,Spring Street,,,,,,Public Housing - Federal Eld/Dis
70 St. Botolph St  Boston  MA  02116,y,,141,St. Botolph,,,,,,Public Housing - Federal Eld/Dis
80 West Dedham St  Boston  MA  02118,y,,142,Torre Unidad,,,,,,Public Housing - Federal Eld/Dis
1701 Washington St  Roxbury  MA  02118,y,,143,Washington Manor,,,,,,Public Housing - Federal Eld/Dis
91-95 Washington St  Brighton  MA  02135,y,,144,91-95 Washington Street,,,,,,Public Housing - Federal Eld/Dis
91 Washington St  Brighton  MA  02135,y,,144,91-95 Washington Street,,,,,,Public Housing - Federal Eld/Dis
93 Washington St  Brighton  MA  02135,y,,144,91-95 Washington Street,,,,,,Public Housing - Federal Eld/Dis
95 Washington St  Brighton  MA  02135,y,,144,91-95 Washington Street,,,,,,Public Housing - Federal Eld/Dis
195 West 9th St  South Boston  MA  02127,y,,145,West 9th Street,,,,,,Public Housing - Federal Eld/Dis
81 Orton Marotta Way  South Boston  MA  02127,y,,146,West Broadway,,,,,,Public Housing - State Family
94 West Newton St  Boston  MA  02118,y,,147,West Newton,,,,,,Public Housing - Federal Family
1158 Tremont St  Roxbury  MA  02119,y,,148,Whittier Street,,,,,,Public Housing - Federal Family
73 Crowley Rogers Way  South Boston  MA  02127,y,,149,West Broadway Homes,,,,,,Public Housing - Tax Cred
43 Smith St  Boston  MA  02120,y,,150,Mission Main,,,,,,Leased Housing - MRVP
25 Ambrose St  Roxbury  MA  02119,y,,151,Orchard Gardens,,,,,,Public Housing - Tax Cred
1285 Commonwealth Ave Suite B  Allston  MA  02134,y,,152,Long-Glen Rental/Ray Dooley Apartments,,,,,,Public Housing - Tax Cred
31 Liverpool St  East Boston  MA  02128,y,,153,Maverick Landing,,,,,,Public Housing - Tax Cred
1990 Columbus Ave  Roxbury  MA  02119,y,,154,Walnut Park,,,,,,Public Housing - Federal Eld/Dis
29 Pond St  Jamaica Plain  MA  02130,y,,155,Pond Street,,,,,,Public Housing - Federal Eld/Dis
544  706  708 Washington St  Dorchester  MA  02124,y,,156,Codman Square,"7 Capen Street , Dorchester, MA 02124",,"24 Crowell Street, Dorchester, MA 02124",,,Leased Housing - Mod Rehab Family
544 Washington St  Dorchester  MA  02124,y,,156,Codman Square,,,,,,Leased Housing - Mod Rehab Family
706 Washington St  Dorchester  MA  02124,y,,156,Codman Square,,,,,,Leased Housing - Mod Rehab Family
708 Washington St  Dorchester  MA  02124,y,,156,Codman Square,,,,,,Leased Housing - Mod Rehab Family
7 Capen St  Dorchester  MA  02124,,y,156,Codman Square,,,,,,Leased Housing - Mod Rehab Family
115-116 Maxwell St  Dorchester  MA  02124,,y,156,Codman Square,,,,,,Leased Housing - Mod Rehab Family
115 Maxwell St  Dorchester  MA  02124,,y,156,Codman Square,,,,,,Leased Housing - Mod Rehab Family
116 Maxwell St  Dorchester  MA  02124,,y,156,Codman Square,,,,,,Leased Housing - Mod Rehab Family
116 Maxwell St  Dorchester  MA  02124,,y,156,Codman Square,,,,,,Leased Housing - Mod Rehab Family
5 15 Fessenden St  Mattapan  MA  02126,y,,160,Fessenden Street Apartments (Family),,,,,,Leased Housing - Mod Rehab Family
5 Fessenden St  Mattapan  MA  02126,y,,160,Fessenden Street Apartments (Family),,,,,,Leased Housing - Mod Rehab Family
15 Fessenden St  Mattapan  MA  02126,y,,160,Fessenden Street Apartments (Family),,,,,,Leased Housing - Mod Rehab Family
"7, 9, 11, 15, 17 & 56 Delle Ave  Boston  MA  02120",y,,164,Frawley Delle Apartments,,,,,,Leased Housing - Mod Rehab Family
7 Delle Ave  Boston  MA  02120,y,,164,Frawley Delle Apartments,,,,,,Leased Housing - Mod Rehab Family
9 Delle Ave  Boston  MA  02120,y,,164,Frawley Delle Apartments,,,,,,Leased Housing - Mod Rehab Family
11 Delle Ave  Boston  MA  02120,y,,164,Frawley Delle Apartments,,,,,,Leased Housing - Mod Rehab Family
15 Delle Ave  Boston  MA  02120,y,,164,Frawley Delle Apartments,,,,,,Leased Housing - Mod Rehab Family
17 Delle Ave  Boston  MA  02120,y,,164,Frawley Delle Apartments,,,,,,Leased Housing - Mod Rehab Family
56 Delle Ave  Boston  MA  02120,y,,164,Frawley Delle Apartments,,,,,,Leased Housing - Mod Rehab Family
77-87 Fayston St  Boston  MA  02119,y,,166,Lawrenceville Scattered Sites,"41, 128-130 Intervale Street, Boston, MA 02119","40-42, 105-111 Lawrence Ave, Boston, MA 02119","35-39 Mt. Pleasant Ave, Boston, MA 02119","46 Vine Street, Boston, MA 02119","21-24 Greenville Street, Boston, MA 02119",Leased Housing - Mod Rehab Family
77 Fayston St  Boston  MA  02119,y,,166,Lawrenceville Scattered Sites,,,,,,Leased Housing - Mod Rehab Family
79 Fayston St  Boston  MA  02119,y,,166,Lawrenceville Scattered Sites,,,,,,Leased Housing - Mod Rehab Family
81 Fayston St  Boston  MA  02119,y,,166,Lawrenceville Scattered Sites,,,,,,Leased Housing - Mod Rehab Family
83 Fayston St  Boston  MA  02119,y,,166,Lawrenceville Scattered Sites,,,,,,Leased Housing - Mod Rehab Family
85 Fayston St  Boston  MA  02119,y,,166,Lawrenceville Scattered Sites,,,,,,Leased Housing - Mod Rehab Family
87 Fayston St  Boston  MA  02119,y,,166,Lawrenceville Scattered Sites,,,,,,Leased Housing - Mod Rehab Family
"41, 128-130 Intervale St  Boston  MA  02119",,y,166,Lawrenceville Scattered Sites,,,,,,Leased Housing - Mod Rehab Family
41 Intervale St  Boston  MA  02119,,y,166,Lawrenceville Scattered Sites,,,,,,Leased Housing - Mod Rehab Family
128-130 Intervale St  Boston  MA  02119,,y,166,Lawrenceville Scattered Sites,,,,,,Leased Housing - Mod Rehab Family
128 Intervale St  Boston  MA  02119,,y,166,Lawrenceville Scattered Sites,,,,,,Leased Housing - Mod Rehab Family
130 Intervale St  Boston  MA  02119,,y,166,Lawrenceville Scattered Sites,,,,,,Leased Housing - Mod Rehab Family
"40-42, 105-111 Lawrence Ave  Boston  MA  02119",,y,166,Lawrenceville Scattered Sites,,,,,,Leased Housing - Mod Rehab Family
40-42 Lawrence Ave  Boston  MA  02119,,y,166,Lawrenceville Scattered Sites,,,,,,Leased Housing - Mod Rehab Family
40 Lawrence Ave  Boston  MA  02119,,y,166,Lawrenceville Scattered Sites,,,,,,Leased Housing - Mod Rehab Family
42 Lawrence Ave  Boston  MA  02119,,y,166,Lawrenceville Scattered Sites,,,,,,Leased Housing - Mod Rehab Family
105-111 Lawrence Ave  Boston  MA  02119,,y,166,Lawrenceville Scattered Sites,,,,,,Leased Housing - Mod Rehab Family
105 Lawrence Ave  Boston  MA  02119,,y,166,Lawrenceville Scattered Sites,,,,,,Leased Housing - Mod Rehab Family
107 Lawrence Ave  Boston  MA  02119,,y,166,Lawrenceville Scattered Sites,,,,,,Leased Housing - Mod Rehab Family
109 Lawrence Ave  Boston  MA  02119,,y,166,Lawrenceville Scattered Sites,,,,,,Leased Housing - Mod Rehab Family
111 Lawrence Ave  Boston  MA  02119,,y,166,Lawrenceville Scattered Sites,,,,,,Leased Housing - Mod Rehab Family
35-39 Mt. Pleasant Ave  Boston  MA  02119,,y,166,Lawrenceville Scattered Sites,,,,,,Leased Housing - Mod Rehab Family
35 Mt. Pleasant Ave  Boston  MA  02119,,y,166,Lawrenceville Scattered Sites,,,,,,Leased Housing - Mod Rehab Family
37 Mt. Pleasant Ave  Boston  MA  02119,,y,166,Lawrenceville Scattered Sites,,,,,,Leased Housing - Mod Rehab Family
39 Mt. Pleasant Ave  Boston  MA  02119,,y,166,Lawrenceville Scattered Sites,,,,,,Leased Housing - Mod Rehab Family
46 Vine St  Boston  MA  02119,,y,166,Lawrenceville Scattered Sites,,,,,,Leased Housing - Mod Rehab Family
21-24 Greenville St  Boston  MA  02119,,y,166,Lawrenceville Scattered Sites,,,,,,Leased Housing - Mod Rehab Family
21 Greenville St  Boston  MA  02119,,y,166,Lawrenceville Scattered Sites,,,,,,Leased Housing - Mod Rehab Family
24 Greenville St  Boston  MA  02119,,y,166,Lawrenceville Scattered Sites,,,,,,Leased Housing - Mod Rehab Family
37 Roxbury St  Roxbury  MA  02119,y,,174,Sargent Prince,,,,,,Leased Housing - Mod Rehab Family
2029-2035 Columbus Ave  Boston  MA  02119  ,y,,176,Washington Park,25 Wyoming Street Boston MA 02121,185 Walnut Street Boston MA 02122,,,,Leased Housing - Mod Rehab Family
2029 Columbus Ave  Boston  MA  02119  ,y,,176,Washington Park,,,,,,Leased Housing - Mod Rehab Family
2031 Columbus Ave  Boston  MA  02119  ,y,,176,Washington Park,,,,,,Leased Housing - Mod Rehab Family
2033 Columbus Ave  Boston  MA  02119  ,y,,176,Washington Park,,,,,,Leased Housing - Mod Rehab Family
2035 Columbus Ave  Boston  MA  02119  ,y,,176,Washington Park,,,,,,Leased Housing - Mod Rehab Family
25 Wyoming St Boston MA  02121,,y,176,Washington Park,,,,,,Leased Housing - Mod Rehab Family
185 Walnut St Boston MA  02122,,y,176,Washington Park,,,,,,Leased Housing - Mod Rehab Family
77 Kingsdale St  Boston  MA  02124,y,,179,Boston Hope,,,,,,Leased Housing - PBV Family
88-89 Nightingale St  Boston  MA  02124,y,,180,Boston Hope (PBV),"71-77 Kingsdale Street,Boston M.A 02124",,,,,Leased Housing - PBV Eld/Dis
88 Nightingale St  Boston  MA  02124,y,,180,Boston Hope (PBV),,,,,,Leased Housing - PBV Eld/Dis
89 Nightingale St  Boston  MA  02124,y,,180,Boston Hope (PBV),,,,,,Leased Housing - PBV Eld/Dis
71-77 Kingsdale St Boston MA  02124,,y,180,Boston Hope (PBV),,,,,,Leased Housing - PBV Eld/Dis
71 Kingsdale St Boston MA  02124,,y,180,Boston Hope (PBV),,,,,,Leased Housing - PBV Eld/Dis
73 Kingsdale St Boston MA  02124,,y,180,Boston Hope (PBV),,,,,,Leased Housing - PBV Eld/Dis
75 Kingsdale St Boston MA  02124,,y,180,Boston Hope (PBV),,,,,,Leased Housing - PBV Eld/Dis
77 Kingsdale St Boston MA  02124,,y,180,Boston Hope (PBV),,,,,,Leased Housing - PBV Eld/Dis
127 Condor St  East Boston  MA  02128,y,,183,Condor-Havre Garden Apts,"129 Havre Street East Boston, MA 02128",,,,,Leased Housing - PBV Family
129 Havre St East Boston  MA  02128,y,,183,Condor-Havre Garden Apts,,,,,,Leased Housing - PBV Family
3091 Washington St  Boston  MA  02119,y,,185,Egleston Crossing (PBV),,,,,,Leased Housing - PBV Eld/Dis
1 Shandon Rd  Dorchester  MA  02124,y,,186,Franklin Hill (PBV),,,,,,Leased Housing - PBV Family
436 Harvard St  Dorchester  MA  02116,y,,187,Harvard Hill Apartments,"60-70 Hazelton Street , Dorchester, MA 02116",,,,,Leased Housing - PBV Family
60-70 Hazelton St  Dorchester  MA  02116,,y,187,Harvard Hill Apartments,,,,,,Leased Housing - PBV Family
60 Hazelton St  Dorchester  MA  02116,,y,187,Harvard Hill Apartments,,,,,,Leased Housing - PBV Family
62 Hazelton St  Dorchester  MA  02116,,y,187,Harvard Hill Apartments,,,,,,Leased Housing - PBV Family
64 Hazelton St  Dorchester  MA  02116,,y,187,Harvard Hill Apartments,,,,,,Leased Housing - PBV Family
66 Hazelton St  Dorchester  MA  02116,,y,187,Harvard Hill Apartments,,,,,,Leased Housing - PBV Family
68 Hazelton St  Dorchester  MA  02116,,y,187,Harvard Hill Apartments,,,,,,Leased Housing - PBV Family
70 Hazelton St  Dorchester  MA  02116,,y,187,Harvard Hill Apartments,,,,,,Leased Housing - PBV Family
2262 Dorchester Ave  Dorchester  MA  02124,y,,189,Lower Mills (PBV),,,,,,Leased Housing - PBV Eld/Dis
"25-27, 35, 84 Dacia St  Boston  MA  02125",y,,191,Howard Dacia,"18 Dewey Street,","9,15 Dalkeith stret,",155 Howard Ave,,,Leased Housing - PBV Family
25 Dacia St  Boston  MA  02125,y,,191,Howard Dacia,,,,,,Leased Housing - PBV Family
27 Dacia St  Boston  MA  02125,y,,191,Howard Dacia,,,,,,Leased Housing - PBV Family
35 Dacia St  Boston  MA  02125,y,,191,Howard Dacia,,,,,,Leased Housing - PBV Family
84 Dacia St  Boston  MA  02125,y,,191,Howard Dacia,,,,,,Leased Housing - PBV Family
18 Dewey St  Boston  MA  02125,,y,191,Howard Dacia,,,,,,Leased Housing - PBV Family
9 Dalkeith St  Boston  MA  02125,,y,191,Howard Dacia,,,,,,Leased Housing - PBV Family
15 Dalkeith St  Boston  MA  02125,,y,191,Howard Dacia,,,,,,Leased Housing - PBV Family
155 Howard Ave  Boston  MA  02125,,y,191,Howard Dacia,,,,,,Leased Housing - PBV Family
121-141 Lucerne St  Dorchester  MA  02124,y,,195,Lucerne Gardens,"56 Winston Road, Dorchester MA 02124",,,,,Leased Housing - PBV Family
121 Lucerne St  Dorchester  MA  02124,y,,195,Lucerne Gardens,,,,,,Leased Housing - PBV Family
123 Lucerne St  Dorchester  MA  02124,y,,195,Lucerne Gardens,,,,,,Leased Housing - PBV Family
125 Lucerne St  Dorchester  MA  02124,y,,195,Lucerne Gardens,,,,,,Leased Housing - PBV Family
127 Lucerne St  Dorchester  MA  02124,y,,195,Lucerne Gardens,,,,,,Leased Housing - PBV Family
129 Lucerne St  Dorchester  MA  02124,y,,195,Lucerne Gardens,,,,,,Leased Housing - PBV Family
131 Lucerne St  Dorchester  MA  02124,y,,195,Lucerne Gardens,,,,,,Leased Housing - PBV Family
133 Lucerne St  Dorchester  MA  02124,y,,195,Lucerne Gardens,,,,,,Leased Housing - PBV Family
135 Lucerne St  Dorchester  MA  02124,y,,195,Lucerne Gardens,,,,,,Leased Housing - PBV Family
137 Lucerne St  Dorchester  MA  02124,y,,195,Lucerne Gardens,,,,,,Leased Housing - PBV Family
139 Lucerne St  Dorchester  MA  02124,y,,195,Lucerne Gardens,,,,,,Leased Housing - PBV Family
141 Lucerne St  Dorchester  MA  02124,y,,195,Lucerne Gardens,,,,,,Leased Housing - PBV Family
56 Winston Rd  Dorchester MA  02124,,y,195,Lucerne Gardens,,,,,,Leased Housing - PBV Family
3-8 Nazing Ct  Dorchester  MA  02121  ,y,,197,Nazing Court,"224 Seaver Street, Dorchester, MA 02121",,,,,Leased Housing - PBV Family
3 Nazing Ct  Dorchester  MA  02121  ,y,,197,Nazing Court,,,,,,Leased Housing - PBV Family
8 Nazing Ct  Dorchester  MA  02121  ,y,,197,Nazing Court,,,,,,Leased Housing - PBV Family
224 Seaver St  Dorchester  MA  02121,,y,197,Nazing Court,,,,,,Leased Housing - PBV Family
888 Washington St  Boston  MA  02111,y,,199,Oak Terrace,,,,,,Leased Housing - PBV Family
"37, 43 Sandpiper Lane  Dorchester  MA  02124 ",y,,200,Olmsted Green  Rental III,"6,18,34,36,68,76 Osprey Way, Dorchester, MA 02124",,,,,Leased Housing - PBV Family
37 Sandpiper Lane  Dorchester  MA  02124 ,y,,200,Olmsted Green  Rental III,,,,,,Leased Housing - PBV Family
39 Sandpiper Lane  Dorchester  MA  02124 ,y,,200,Olmsted Green  Rental III,,,,,,Leased Housing - PBV Family
41 Sandpiper Lane  Dorchester  MA  02124 ,y,,200,Olmsted Green  Rental III,,,,,,Leased Housing - PBV Family
43 Sandpiper Lane  Dorchester  MA  02124 ,y,,200,Olmsted Green  Rental III,,,,,,Leased Housing - PBV Family
"6, 18, 34, 36, 68, 76 Osprey Way  Dorchester  MA  02124",,y,200,Olmsted Green  Rental III,,,,,,Leased Housing - PBV Family
6 Osprey Way  Dorchester  MA  02124,,y,200,Olmsted Green  Rental III,,,,,,Leased Housing - PBV Family
18 Osprey Way  Dorchester  MA  02124,,y,200,Olmsted Green  Rental III,,,,,,Leased Housing - PBV Family
34 Osprey Way  Dorchester  MA  02124,,y,200,Olmsted Green  Rental III,,,,,,Leased Housing - PBV Family
36 Osprey Way  Dorchester  MA  02124,,y,200,Olmsted Green  Rental III,,,,,,Leased Housing - PBV Family
68 Osprey Way  Dorchester  MA  02124,,y,200,Olmsted Green  Rental III,,,,,,Leased Housing - PBV Family
76 Osprey Way  Dorchester  MA  02124,,y,200,Olmsted Green  Rental III,,,,,,Leased Housing - PBV Family
"26, 46 & 50 Norwell St  Dorchester  MA  02121",y,,204,Trinity Terrace,"3, 19, 21 Trinity Terrace, Dorchester, MA 02125","237 Washington Street, Dorchester, MA 02125",,,,Leased Housing - PBV Family
26 Norwell St  Dorchester  MA  02121,y,,204,Trinity Terrace,,,,,,Leased Housing - PBV Family
46 Norwell St  Dorchester  MA  02121,y,,204,Trinity Terrace,,,,,,Leased Housing - PBV Family
50 Norwell St  Dorchester  MA  02121,y,,204,Trinity Terrace,,,,,,Leased Housing - PBV Family
"3, 19, 21 Trinity Terrace  Dorchester  MA  02125",,y,204,Trinity Terrace,,,,,,Leased Housing - PBV Family
3 Trinity Terrace  Dorchester  MA  02125,,y,204,Trinity Terrace,,,,,,Leased Housing - PBV Family
19 Trinity Terrace  Dorchester  MA  02125,,y,204,Trinity Terrace,,,,,,Leased Housing - PBV Family
21 Trinity Terrace  Dorchester  MA  02125,,y,204,Trinity Terrace,,,,,,Leased Housing - PBV Family
237 Washington St  Dorchester  MA  02125,,y,204,Trinity Terrace,,,,,,Leased Housing - PBV Family
237-241 Walnut Ave  Roxbury  MA  02119,y,,207,Walnut House (PBV),,,,,,Leased Housing - PBV Eld/Dis
237 Walnut Ave  Roxbury  MA  02119,y,,207,Walnut House (PBV),,,,,,Leased Housing - PBV Eld/Dis
239 Walnut Ave  Roxbury  MA  02119,y,,207,Walnut House (PBV),,,,,,Leased Housing - PBV Eld/Dis
241 Walnut Ave  Roxbury  MA  02119,y,,207,Walnut House (PBV),,,,,,Leased Housing - PBV Eld/Dis
71 Westland St  Boston  MA  02115,y,,216,Westland/Burbank,64-70 Burbank Street Boston MA 02115,,,,,Leased Housing - PBV Family
64-70 Burbank St Boston MA  02115,,y,216,Westland/Burbank,,,,,,Leased Housing - PBV Family
64 Burbank St Boston MA  02115,,y,216,Westland/Burbank,,,,,,Leased Housing - PBV Family
66 Burbank St Boston MA  02115,,y,216,Westland/Burbank,,,,,,Leased Housing - PBV Family
68 Burbank St Boston MA  02115,,y,216,Westland/Burbank,,,,,,Leased Housing - PBV Family
70 Burbank St Boston MA  02115,,y,216,Westland/Burbank,,,,,,Leased Housing - PBV Family
40-42 Upton St  Boston  MA  02118,y,,217,40 Upton Street,,,,,,Leased Housing - PBV Family
40 Upton St  Boston  MA  02118,y,,217,40 Upton Street,,,,,,Leased Housing - PBV Family
42 Upton St  Boston  MA  02118,y,,217,40 Upton Street,,,,,,Leased Housing - PBV Family
34 Algonquin St  Dorchester  MA  02124,y,,218,Algonquin (PBV),,,,,,Leased Housing - PBV Eld/Dis
40-42 Ashford St  Allston  MA  02134,y,,219,Ashford Street Lodging,,,,,,Leased Housing - PBV Eld/Dis
40 Ashford St  Allston  MA  02134,y,,219,Ashford Street Lodging,,,,,,Leased Housing - PBV Eld/Dis
42 Ashford St  Allston  MA  02134,y,,219,Ashford Street Lodging,,,,,,Leased Housing - PBV Eld/Dis
440 Tremont St  Boston  MA  02116,y,,220,Eva White,,,,,,Public Housing - Federal Eld/Dis
43 Bow St  Hyde Park  MA  02136,y,,221,Fairmount,,,,,,Public Housing - State Family
266 North Beacon St  Brighton  MA  02135,y,,222,Faneuil Gardens,,,,,,Public Housing - State Family
1740 Washington St  Boston  MA  02118,y,,223,Washington Street (PBV),,,,,,Leased Housing - PBV Eld/Dis